$$SOE
2461288.500000000, A.D. 2026-Sep-05 00:00:00.0000, 3.163732779710757E+08, -2.321932093521764E+08, -1.351021442184892E+07,
2461295.500000000, A.D. 2026-Sep-12 00:00:00.0000, 3.222676653955508E+08, -2.238478207353435E+08, -1.326088979810923E+07,
2461302.500000000, A.D. 2026-Sep-19 00:00:00.0000, 3.279035612483941E+08, -2.153228969297374E+08, -1.300092787894422E+07,
2461309.500000000, A.D. 2026-Sep-26 00:00:00.0000, 3.332762218710122E+08, -2.066251330147285E+08, -1.273052834901036E+07,
2461316.500000000, A.D. 2026-Oct-03 00:00:00.0000, 3.383810078855802E+08, -1.977613127970689E+08, -1.244989584586151E+07,
2461323.500000000, A.D. 2026-Oct-10 00:00:00.0000, 3.432133834761985E+08, -1.887383113381289E+08, -1.215924004641497E+07,
2461330.500000000, A.D. 2026-Oct-17 00:00:00.0000, 3.477689159285976E+08, -1.795630977229679E+08, -1.185877576826251E+07,
2461337.500000000, A.D. 2026-Oct-24 00:00:00.0000, 3.520432754642058E+08, -1.702427380901324E+08, -1.154872308957628E+07,
2461344.500000000, A.D. 2026-Oct-31 00:00:00.0000, 3.560322354760222E+08, -1.607843989847530E+08, -1.122930750176279E+07,
2461351.500000000, A.D. 2026-Nov-07 00:00:00.0000, 3.597316735122746E+08, -1.511953509536236E+08, -1.090076011956944E+07,
2461358.500000000, A.D. 2026-Nov-14 00:00:00.0000, 3.631375732184573E+08, -1.414829714849205E+08, -1.056331789403994E+07,
2461365.500000000, A.D. 2026-Nov-21 00:00:00.0000, 3.662460254403563E+08, -1.316547466027261E+08, -1.021722360577624E+07,
2461372.500000000, A.D. 2026-Nov-28 00:00:00.0000, 3.690532275029843E+08, -1.217182741183920E+08, -9.862725792376488E+06,
2461379.500000000, A.D. 2026-Dec-05 00:00:00.0000, 3.715554842949187E+08, -1.116812691855430E+08, -9.500078995395884E+06,
2461386.500000000, A.D. 2026-Dec-12 00:00:00.0000, 3.737492113358748E+08, -1.015515690358579E+08, -9.129544087276317E+06,
2461393.500000000, A.D. 2026-Dec-19 00:00:00.0000, 3.756309379565482E+08, -9.133713687809645E+07, -8.751388504113313E+06,
2461400.500000000, A.D. 2026-Dec-26 00:00:00.0000, 3.771973104654044E+08, -8.104606581732033E+07, -8.365886441676129E+06,
2461407.500000000, A.D. 2027-Jan-02 00:00:00.0000, 3.784450955956373E+08, -7.068658297312924E+07, -7.973319055161193E+06,
2461414.500000000, A.D. 2027-Jan-09 00:00:00.0000, 3.793711843672178E+08, -6.026705376337785E+07, -7.573974671344779E+06,
2461421.500000000, A.D. 2027-Jan-16 00:00:00.0000, 3.799725964181628E+08, -4.979598632986072E+07, -7.168149015238676E+06,
2461428.500000000, A.D. 2027-Jan-23 00:00:00.0000, 3.802464848707130E+08, -3.928203612972102E+07, -6.756145458304225E+06,
2461435.500000000, A.D. 2027-Jan-30 00:00:00.0000, 3.801901419398692E+08, -2.873401072348925E+07, -6.338275309054699E+06,
2461442.500000000, A.D. 2027-Feb-06 00:00:00.0000, 3.798010057270315E+08, -1.816087440020560E+07, -5.914858157022814E+06,
2461449.500000000, A.D. 2027-Feb-13 00:00:00.0000, 3.790766677581635E+08, -7.571751395033937E+06, -5.486222127674481E+06,
2461456.500000000, A.D. 2027-Feb-20 00:00:00.0000, 3.780148789300902E+08, 3.024071535989411E+06, -5.052703895230222E+06,
2461463.500000000, A.D. 2027-Feb-27 00:00:00.0000, 3.766135552881400E+08, 1.361713999460860E+07, -4.614648843609205E+06,
2461470.500000000, A.D. 2027-Mar-06 00:00:00.0000, 3.748707866748983E+08, 2.419782622392665E+07, -4.172411494855561E+06,
2461477.500000000, A.D. 2027-Mar-13 00:00:00.0000, 3.727848466736924E+08, 3.475632488136278E+07, -3.726355890004219E+06,
2461484.500000000, A.D. 2027-Mar-20 00:00:00.0000, 3.703542027444375E+08, 4.528264950430362E+07, -3.276855885990346E+06,
2461491.500000000, A.D. 2027-Mar-27 00:00:00.0000, 3.675775267812348E+08, 5.576662916067179E+07, -2.824295430845566E+06,
2461498.500000000, A.D. 2027-Apr-03 00:00:00.0000, 3.644537063215870E+08, 6.619790528204848E+07, -2.369068838368196E+06,
2461505.500000000, A.D. 2027-Apr-10 00:00:00.0000, 3.609818564949991E+08, 7.656592875258386E+07, -1.911581064444676E+06,
2461512.500000000, A.D. 2027-Apr-17 00:00:00.0000, 3.571613327591735E+08, 8.685995729483655E+07, -1.452247986393914E+06,
2461519.500000000, A.D. 2027-Apr-24 00:00:00.0000, 3.529917445289183E+08, 9.706905315136196E+07, -9.914966955783740E+05,
2461526.500000000, A.D. 2027-May-01 00:00:00.0000, 3.484729700225027E+08, 1.071820811556141E+08, -5.297658262334839E+05,
2461533.500000000, A.D. 2027-May-08 00:00:00.0000, 3.436051726530921E+08, 1.171877080107421E+08, -6.750588525572419E+04,
2461540.500000000, A.D. 2027-May-15 00:00:00.0000, 3.383888174834347E+08, 1.270744038099650E+08, 3.948206353284642E+05,
2461547.500000000, A.D. 2027-May-22 00:00:00.0000, 3.328246862012351E+08, 1.368304432969624E+08, 8.567392988729104E+05,
2461554.500000000, A.D. 2027-May-29 00:00:00.0000, 3.269138939902492E+08, 1.464439054863973E+08, 1.317763493195765E+06,
2461561.500000000, A.D. 2027-Jun-05 00:00:00.0000, 3.206579091843736E+08, 1.559026748684538E+08, 1.777394106201857E+06,
2461568.500000000, A.D. 2027-Jun-12 00:00:00.0000, 3.140585736894780E+08, 1.651944447325744E+08, 2.235119331281044E+06,
2461575.500000000, A.D. 2027-Jun-19 00:00:00.0000, 3.071181238274472E+08, 1.743067217907204E+08, 2.690414560848564E+06,
2461582.500000000, A.D. 2027-Jun-26 00:00:00.0000, 2.998392118621214E+08, 1.832268319670083E+08, 3.142742326337107E+06,
2461589.500000000, A.D. 2027-Jul-03 00:00:00.0000, 2.922249283163323E+08, 1.919419275004615E+08, 3.591552279481813E+06,
2461596.500000000, A.D. 2027-Jul-10 00:00:00.0000, 2.842788250877207E+08, 2.004389955135659E+08, 4.036281219127446E+06,
2461603.500000000, A.D. 2027-Jul-17 00:00:00.0000, 2.760049393578283E+08, 2.087048681553455E+08, 4.476353164179847E+06,
2461610.500000000, A.D. 2027-Jul-24 00:00:00.0000, 2.674078183919373E+08, 2.167262344089985E+08, 4.911179460535184E+06,
2461617.500000000, A.D. 2027-Jul-31 00:00:00.0000, 2.584925455645648E+08, 2.244896539586011E+08, 5.340158910974741E+06,
2461624.500000000, A.D. 2027-Aug-07 00:00:00.0000, 2.492647673122388E+08, 2.319815744272653E+08, 5.762678047871783E+06,
2461631.500000000, A.D. 2027-Aug-14 00:00:00.0000, 2.397307185853864E+08, 2.391883518988204E+08, 6.178111747251034E+06,
2461638.500000000, A.D. 2027-Aug-21 00:00:00.0000, 2.298972472749209E+08, 2.460962715397568E+08, 6.585823862422094E+06,
2461645.500000000, A.D. 2027-Aug-28 00:00:00.0000, 2.197718408878850E+08, 2.526915697016848E+08, 6.985167669767454E+06,
2461652.500000000, A.D. 2027-Sep-04 00:00:00.0000, 2.093626540984021E+08, 2.589604601739586E+08, 7.375486448149890E+06,
2461659.500000000, A.D. 2027-Sep-11 00:00:00.0000, 1.986785355547373E+08, 2.648891640918679E+08, 7.756114275346681E+06,
2461666.500000000, A.D. 2027-Sep-18 00:00:00.0000, 1.877290538238542E+08, 2.704639430111900E+08, 8.126376985816911E+06,
2461673.500000000, A.D. 2027-Sep-25 00:00:00.0000, 1.765245224190114E+08, 2.756711352205602E+08, 8.485593271987304E+06,
2461680.500000000, A.D. 2027-Oct-02 00:00:00.0000, 1.650760236683330E+08, 2.804971954518932E+08, 8.833075933724150E+06,
2461687.500000000, A.D. 2027-Oct-09 00:00:00.0000, 1.533954310948475E+08, 2.849287380957538E+08, 9.168133282511786E+06,
2461694.500000000, A.D. 2027-Oct-16 00:00:00.0000, 1.414954299838726E+08, 2.889525839515553E+08, 9.490070698496506E+06,
2461701.500000000, A.D. 2027-Oct-23 00:00:00.0000, 1.293895359753948E+08, 2.925558105598628E+08, 9.798192323868096E+06,
2461708.500000000, A.D. 2027-Oct-30 00:00:00.0000, 1.170921116021161E+08, 2.957258067434373E+08, 1.009180291483237E+07,
2461715.500000000, A.D. 2027-Nov-06 00:00:00.0000, 1.046183791286905E+08, 2.984503324514984E+08, 1.037021005571383E+07,
2461722.500000000, A.D. 2027-Nov-13 00:00:00.0000, 9.198442718949644E+07, 3.007175817313703E+08, 1.063272675066215E+07,
2461729.500000000, A.D. 2027-Nov-20 00:00:00.0000, 7.920721357997259E+07, 3.025162464968184E+08, 1.087867395126355E+07,
2461736.500000000, A.D. 2027-Nov-27 00:00:00.0000, 6.630456527292971E+07, 3.038355838528519E+08, 1.110738311339276E+07,
2461743.500000000, A.D. 2027-Dec-04 00:00:00.0000, 5.329517308033939E+07, 3.046654875929016E+08, 1.131819903914972E+07,
2461750.500000000, A.D. 2027-Dec-11 00:00:00.0000, 4.019857984874787E+07, 3.049965625211316E+08, 1.151048296845712E+07,
2461757.500000000, A.D. 2027-Dec-18 00:00:00.0000, 2.703516191426853E+07, 3.048202007892311E+08, 1.168361585629538E+07,
2461764.500000000, A.D. 2027-Dec-25 00:00:00.0000, 1.382610344301282E+07, 3.041286596782382E+08, 1.183700180568428E+07,
2461771.500000000, A.D. 2028-Jan-01 00:00:00.0000, 5.933632066741245E+05, 3.029151401764917E+08, 1.197007163338946E+07,
$$EOE